{
  "type": "FeatureCollection",
  "features": [
    {
      "type": "Feature",
      "properties": {
        "norad_id": 30606,
        "name": "FENGYUN 1C DEB",
        "group": "fengyun-1c-debris",
        "lat": 14.461033254704876,
        "lon": -169.87955319114695,
        "alt_km": 631.380805920262,
        "timestamp": "2025-12-24T03:53:29.924618+00:00",
        "meta_object_name": "FENGYUN 1C DEB",
        "meta_object_id": "1999-025AMM",
        "meta_epoch": "2025-12-22T18:59:05.047296",
        "meta_mean_motion": 14.57698299,
        "meta_eccentricity": 0.02143203,
        "meta_inclination": 98.0951,
        "meta_ra_of_asc_node": 6.682,
        "meta_arg_of_pericenter": 105.9837,
        "meta_mean_anomaly": 66.1095,
        "meta_ephemeris_type": 0,
        "meta_classification_type": "U",
        "meta_norad_cat_id": 30606,
        "meta_element_set_no": 999,
        "meta_rev_at_epoch": 99388,
        "meta_bstar": 0.00055320438,
        "meta_mean_motion_dot": 3.414e-05,
        "meta_mean_motion_ddot": 0,
        "tle_line1": "1 30606U 99025AMM 25356.79103064  .00003414  00000+0  55320-3 0  9990",
        "tle_line2": "2 30606  98.0951   6.6820 0214320 105.9837  66.1095 14.57698299993880"
      },
      "geometry": {
        "type": "Point",
        "coordinates": [
          -169.87955319114695,
          14.461033254704876
        ]
      }
    },
    {
      "type": "Feature",
      "properties": {
        "norad_id": 30608,
        "name": "FENGYUN 1C DEB",
        "group": "fengyun-1c-debris",
        "lat": 45.790531306237774,
        "lon": -110.13137869370921,
        "alt_km": 781.1985330464131,
        "timestamp": "2025-12-24T03:53:29.924628+00:00",
        "meta_object_name": "FENGYUN 1C DEB",
        "meta_object_id": "1999-025AMP",
        "meta_epoch": "2025-12-23T02:20:10.005792",
        "meta_mean_motion": 14.28531083,
        "meta_eccentricity": 0.00163566,
        "meta_inclination": 98.7089,
        "meta_ra_of_asc_node": 59.7404,
        "meta_arg_of_pericenter": 150.0246,
        "meta_mean_anomaly": 270.5282,
        "meta_ephemeris_type": 0,
        "meta_classification_type": "U",
        "meta_norad_cat_id": 30608,
        "meta_element_set_no": 999,
        "meta_rev_at_epoch": 97587,
        "meta_bstar": 0.001182833,
        "meta_mean_motion_dot": 2.926e-05,
        "meta_mean_motion_ddot": 0,
        "tle_line1": "1 30608U 99025AMP 25357.09733803  .00002926  00000+0  11828-2 0  9997",
        "tle_line2": "2 30608  98.7089  59.7404 0016356 150.0246 270.5282 14.28531083975875"
      },
      "geometry": {
        "type": "Point",
        "coordinates": [
          -110.13137869370921,
          45.790531306237774
        ]
      }
    },
    {
      "type": "Feature",
      "properties": {
        "norad_id": 30609,
        "name": "FENGYUN 1C DEB",
        "group": "fengyun-1c-debris",
        "lat": 34.25652360565316,
        "lon": -91.6310282905998,
        "alt_km": 768.2933735070983,
        "timestamp": "2025-12-24T03:53:29.924639+00:00",
        "meta_object_name": "FENGYUN 1C DEB",
        "meta_object_id": "1999-025AMQ",
        "meta_epoch": "2025-12-23T00:30:28.116000",
        "meta_mean_motion": 14.11299562,
        "meta_eccentricity": 0.01199947,
        "meta_inclination": 98.5696,
        "meta_ra_of_asc_node": 273.1738,
        "meta_arg_of_pericenter": 24.1691,
        "meta_mean_anomaly": 336.5048,
        "meta_ephemeris_type": 0,
        "meta_classification_type": "U",
        "meta_norad_cat_id": 30609,
        "meta_element_set_no": 999,
        "meta_rev_at_epoch": 95873,
        "meta_bstar": 0.0026768855,
        "meta_mean_motion_dot": 5.136e-05,
        "meta_mean_motion_ddot": 0,
        "tle_line1": "1 30609U 99025AMQ 25357.02115875  .00005136  00000+0  26769-2 0  9990",
        "tle_line2": "2 30609  98.5696 273.1738 0119994  24.1691 336.5048 14.11299562958731"
      },
      "geometry": {
        "type": "Point",
        "coordinates": [
          -91.6310282905998,
          34.25652360565316
        ]
      }
    },
    {
      "type": "Feature",
      "properties": {
        "norad_id": 30612,
        "name": "FENGYUN 1C DEB",
        "group": "fengyun-1c-debris",
        "lat": 14.9822352079784,
        "lon": 172.323403143066,
        "alt_km": 484.77809848192555,
        "timestamp": "2025-12-24T03:53:29.924650+00:00",
        "meta_object_name": "FENGYUN 1C DEB",
        "meta_object_id": "1999-025AMT",
        "meta_epoch": "2025-12-22T23:11:46.303296",
        "meta_mean_motion": 15.3180847,
        "meta_eccentricity": 0.00258054,
        "meta_inclination": 99.0822,
        "meta_ra_of_asc_node": 348.406,
        "meta_arg_of_pericenter": 312.757,
        "meta_mean_anomaly": 102.2284,
        "meta_ephemeris_type": 0,
        "meta_classification_type": "U",
        "meta_norad_cat_id": 30612,
        "meta_element_set_no": 999,
        "meta_rev_at_epoch": 414,
        "meta_bstar": 0.0035617822,
        "meta_mean_motion_dot": 0.00111936,
        "meta_mean_motion_ddot": 0,
        "tle_line1": "1 30612U 99025AMT 25356.96650814  .00111936  00000+0  35618-2 0  9992",
        "tle_line2": "2 30612  99.0822 348.4060 0025805 312.7570 102.2284 15.31808470  4149"
      },
      "geometry": {
        "type": "Point",
        "coordinates": [
          172.323403143066,
          14.9822352079784
        ]
      }
    },
    {
      "type": "Feature",
      "properties": {
        "norad_id": 30613,
        "name": "FENGYUN 1C DEB",
        "group": "fengyun-1c-debris",
        "lat": 58.6544986015497,
        "lon": -47.09392300884867,
        "alt_km": 459.9930047694561,
        "timestamp": "2025-12-24T03:53:29.924660+00:00",
        "meta_object_name": "FENGYUN 1C DEB",
        "meta_object_id": "1999-025AMU",
        "meta_epoch": "2025-12-23T00:29:43.822176",
        "meta_mean_motion": 15.19224967,
        "meta_eccentricity": 0.00615153,
        "meta_inclination": 98.3071,
        "meta_ra_of_asc_node": 117.7716,
        "meta_arg_of_pericenter": 132.368,
        "meta_mean_anomaly": 228.2784,
        "meta_ephemeris_type": 0,
        "meta_classification_type": "U",
        "meta_norad_cat_id": 30613,
        "meta_element_set_no": 999,
        "meta_rev_at_epoch": 99552,
        "meta_bstar": 0.0046920363,
        "meta_mean_motion_dot": 0.00105146,
        "meta_mean_motion_ddot": 0,
        "tle_line1": "1 30613U 99025AMU 25357.02064609  .00105146  00000+0  46920-2 0  9996",
        "tle_line2": "2 30613  98.3071 117.7716 0061515 132.3680 228.2784 15.19224967995523"
      },
      "geometry": {
        "type": "Point",
        "coordinates": [
          -47.09392300884867,
          58.6544986015497
        ]
      }
    },
    {
      "type": "Feature",
      "properties": {
        "norad_id": 30616,
        "name": "FENGYUN 1C DEB",
        "group": "fengyun-1c-debris",
        "lat": -70.71990186175485,
        "lon": 80.41021871251228,
        "alt_km": 980.1100731608931,
        "timestamp": "2025-12-24T03:53:29.924670+00:00",
        "meta_object_name": "FENGYUN 1C DEB",
        "meta_object_id": "1999-025AMX",
        "meta_epoch": "2025-12-22T21:42:09.442080",
        "meta_mean_motion": 13.36042902,
        "meta_eccentricity": 0.0381448,
        "meta_inclination": 98.6405,
        "meta_ra_of_asc_node": 53.5777,
        "meta_arg_of_pericenter": 230.5054,
        "meta_mean_anomaly": 126.1766,
        "meta_ephemeris_type": 0,
        "meta_classification_type": "U",
        "meta_norad_cat_id": 30616,
        "meta_element_set_no": 999,
        "meta_rev_at_epoch": 91836,
        "meta_bstar": 0.0017178,
        "meta_mean_motion_dot": 1.297e-05,
        "meta_mean_motion_ddot": 0,
        "tle_line1": "1 30616U 99025AMX 25356.90427595  .00001297  00000+0  17178-2 0  9997",
        "tle_line2": "2 30616  98.6405  53.5777 0381448 230.5054 126.1766 13.36042902918367"
      },
      "geometry": {
        "type": "Point",
        "coordinates": [
          80.41021871251228,
          -70.71990186175485
        ]
      }
    },
    {
      "type": "Feature",
      "properties": {
        "norad_id": 30619,
        "name": "FENGYUN 1C DEB",
        "group": "fengyun-1c-debris",
        "lat": -51.111307919410244,
        "lon": -169.65675158752305,
        "alt_km": 897.025775574929,
        "timestamp": "2025-12-24T03:53:29.924681+00:00",
        "meta_object_name": "FENGYUN 1C DEB",
        "meta_object_id": "1999-025ANA",
        "meta_epoch": "2025-12-23T00:09:27.617760",
        "meta_mean_motion": 14.41119801,
        "meta_eccentricity": 0.02154018,
        "meta_inclination": 98.2949,
        "meta_ra_of_asc_node": 19.6416,
        "meta_arg_of_pericenter": 27.5683,
        "meta_mean_anomaly": 333.6737,
        "meta_ephemeris_type": 0,
        "meta_classification_type": "U",
        "meta_norad_cat_id": 30619,
        "meta_element_set_no": 999,
        "meta_rev_at_epoch": 99097,
        "meta_bstar": 0.00029234044,
        "meta_mean_motion_dot": 1.191e-05,
        "meta_mean_motion_ddot": 0,
        "tle_line1": "1 30619U 99025ANA 25357.00656965  .00001191  00000+0  29234-3 0  9997",
        "tle_line2": "2 30619  98.2949  19.6416 0215401  27.5683 333.6737 14.41119801990979"
      },
      "geometry": {
        "type": "Point",
        "coordinates": [
          -169.65675158752305,
          -51.111307919410244
        ]
      }
    }
  ]
}